0 COSMOS 1375 DEB
1 16385U 82055Z   13282.43400068  .00000466  00000-0  51122-3 0  2560
2 16385 065.8304 270.5998 0015091 064.9451 096.3390 13.81811941405293
0 COSMOS 1375 DEB
1 16385U 82055Z   13285.95478377  .00000433  00000-0  47978-3 0  2588
2 16385 065.8306 261.7996 0015401 062.1487 331.6148 13.81816216405789
0 COSMOS 1375 DEB
1 16385U 82055Z   13287.35343126  .00000494  00000-0  53695-3 0  2598
2 16385 065.8308 258.3036 0015528 061.0979 089.5976 13.81817600405979
0 COSMOS 1375 DEB
1 16385U 82055Z   13288.36777206  .00000642  00000-0  67490-3 0  2605
2 16385 065.8309 255.7683 0015648 060.3416 095.7328 13.81819251406111
0 COSMOS 1375 DEB
1 16385U 82055Z   13289.79896512  .00000582  00000-0  61846-3 0  2618
2 16385 065.8310 252.1911 0015819 059.2626 015.6425 13.81821591406319
0 COSMOS 1375 DEB
1 16385U 82055Z   13291.18085191  .00000603  00000-0  63825-3 0  2621
2 16385 065.8310 248.7372 0015978 058.2737 050.2219 13.81823107406501
0 COSMOS 1375 DEB
1 16385U 82055Z   13292.19378531  .00000658  00000-0  68996-3 0  2631
2 16385 065.8310 246.2056 0016138 057.6171 049.2770 13.81824454406648
0 COSMOS 1375 DEB
1 16385U 82055Z   13293.20734251  .00000696  00000-0  72451-3 0  2643
2 16385 065.8309 243.6723 0016223 056.9243 051.4779 13.81826239406787
0 COSMOS 1375 DEB
1 16385U 82055Z   13294.30178238  .00000699  00000-0  72808-3 0  2652
2 16385 065.8309 240.9369 0016359 056.1984 096.0322 13.81828233406939
0 COSMOS 1375 DEB
1 16385U 82055Z   13296.17587145  .00000684  00000-0  71335-3 0  2669
2 16385 065.8309 236.2527 0016575 055.0154 059.0962 13.81831629407191
